{
 "type": "FeatureCollection",
 "features": [
  {
   "type": "Feature",
   "geometry": {
    "type": "Point",
    "coordinates": [
     479243.8,
     3997948.1
    ]
   },
   "properties": {
    "class_id": "civic_structure",
    "name": "Frog Pond Ch",
    "positional_confidence_m": 35,
    "note": "church-with-cross on 1966 sheet, label reads '...Chapel'"
   }
  },
  {
   "type": "Feature",
   "geometry": {
    "type": "Point",
    "coordinates": [
     480304.2,
     3998061.4
    ]
   },
   "properties": {
    "class_id": "civic_structure",
    "name": "Pleasant View Ch",
    "positional_confidence_m": 35,
    "note": "church-with-cross survives on 1966 sheet"
   }
  },
  {
   "type": "Feature",
   "geometry": {
    "type": "Point",
    "coordinates": [
     480413.8,
     4001626.3
    ]
   },
   "properties": {
    "class_id": "civic_structure",
    "name": "Claylick Sch",
    "positional_confidence_m": 45,
    "note": "unlabeled building persists at the 1930 school position on the 1966 sheet"
   }
  },
  {
   "type": "Feature",
   "geometry": {
    "type": "Point",
    "coordinates": [
     482458.6,
     3997992.5
    ]
   },
   "properties": {
    "class_id": "family_cemetery",
    "name": "Taylortown Cem",
    "positional_confidence_m": 40,
    "note": "dashed cemetery enclosure with 'Cem' label on 1966 sheet, NW of the vanished school"
   }
  }
 ]
}